{
  "type": "FeatureCollection",
  "features": [
    {
      "type": "Feature",
      "properties": {
        "norad_id": 60182,
        "name": "ALOS-4 (DAICHI-4)",
        "group": "resource",
        "lat": -8.567819103716793,
        "lon": -92.22455648527458,
        "alt_km": 635.0152889104211,
        "timestamp": "2025-12-20T05:41:49.676174+00:00",
        "meta_object_name": "ALOS-4 (DAICHI-4)",
        "meta_object_id": "2024-123A",
        "meta_epoch": "2025-12-19T22:21:18.106848",
        "meta_mean_motion": 14.79474129,
        "meta_eccentricity": 0.00013822,
        "meta_inclination": 97.9224,
        "meta_ra_of_asc_node": 88.6761,
        "meta_arg_of_pericenter": 101.3825,
        "meta_mean_anomaly": 258.7542,
        "meta_ephemeris_type": 0,
        "meta_classification_type": "U",
        "meta_norad_cat_id": 60182,
        "meta_element_set_no": 999,
        "meta_rev_at_epoch": 7937,
        "meta_bstar": 0.00019337671,
        "meta_mean_motion_dot": 1.393e-05,
        "meta_mean_motion_ddot": 0,
        "tle_line1": "1 60182U 24123A   25353.93145957  .00001393  00000+0  19338-3 0  9992",
        "tle_line2": "2 60182  97.9224  88.6761 0001382 101.3825 258.7542 14.79474129 79379"
      },
      "geometry": {
        "type": "Point",
        "coordinates": [
          -92.22455648527458,
          -8.567819103716793
        ]
      }
    },
    {
      "type": "Feature",
      "properties": {
        "norad_id": 60452,
        "name": "LEGION 3",
        "group": "resource",
        "lat": -5.069522494314682,
        "lon": 95.02896594485647,
        "alt_km": 512.4463338196947,
        "timestamp": "2025-12-20T05:41:49.676184+00:00",
        "meta_object_name": "LEGION 3",
        "meta_object_id": "2024-146A",
        "meta_epoch": "2025-12-19T20:57:57.766464",
        "meta_mean_motion": 15.15831408,
        "meta_eccentricity": 0.00156347,
        "meta_inclination": 45.0021,
        "meta_ra_of_asc_node": 271.8877,
        "meta_arg_of_pericenter": 237.0993,
        "meta_mean_anomaly": 122.8381,
        "meta_ephemeris_type": 0,
        "meta_classification_type": "U",
        "meta_norad_cat_id": 60452,
        "meta_element_set_no": 999,
        "meta_rev_at_epoch": 7481,
        "meta_bstar": 0.0001725552,
        "meta_mean_motion_dot": 3.098e-05,
        "meta_mean_motion_ddot": 0,
        "tle_line1": "1 60452U 24146A   25353.87358526  .00003098  00000+0  17256-3 0  9999",
        "tle_line2": "2 60452  45.0021 271.8877 0015634 237.0993 122.8381 15.15831408 74814"
      },
      "geometry": {
        "type": "Point",
        "coordinates": [
          95.02896594485647,
          -5.069522494314682
        ]
      }
    },
    {
      "type": "Feature",
      "properties": {
        "norad_id": 60453,
        "name": "LEGION 4",
        "group": "resource",
        "lat": -4.026639216057443,
        "lon": -174.2564585456933,
        "alt_km": 524.6504732120002,
        "timestamp": "2025-12-20T05:41:49.676195+00:00",
        "meta_object_name": "LEGION 4",
        "meta_object_id": "2024-146B",
        "meta_epoch": "2025-12-19T20:58:26.370912",
        "meta_mean_motion": 15.15893428,
        "meta_eccentricity": 0.00088008,
        "meta_inclination": 45.0395,
        "meta_ra_of_asc_node": 3.6582,
        "meta_arg_of_pericenter": 349.2141,
        "meta_mean_anomaly": 10.8548,
        "meta_ephemeris_type": 0,
        "meta_classification_type": "U",
        "meta_norad_cat_id": 60453,
        "meta_element_set_no": 999,
        "meta_rev_at_epoch": 7366,
        "meta_bstar": 0.00018434267,
        "meta_mean_motion_dot": 3.328e-05,
        "meta_mean_motion_ddot": 0,
        "tle_line1": "1 60453U 24146B   25353.87391633  .00003328  00000+0  18434-3 0  9991",
        "tle_line2": "2 60453  45.0395   3.6582 0008800 349.2141  10.8548 15.15893428 73664"
      },
      "geometry": {
        "type": "Point",
        "coordinates": [
          -174.2564585456933,
          -4.026639216057443
        ]
      }
    },
    {
      "type": "Feature",
      "properties": {
        "norad_id": 60989,
        "name": "SENTINEL-2C",
        "group": "resource",
        "lat": 77.88666634812849,
        "lon": 21.991214375224633,
        "alt_km": 780.8313463524782,
        "timestamp": "2025-12-20T05:41:49.676206+00:00",
        "meta_object_name": "SENTINEL-2C",
        "meta_object_id": "2024-157A",
        "meta_epoch": "2025-12-19T22:36:17.460864",
        "meta_mean_motion": 14.30820183,
        "meta_eccentricity": 0.00012146,
        "meta_inclination": 98.5676,
        "meta_ra_of_asc_node": 66.3206,
        "meta_arg_of_pericenter": 96.0586,
        "meta_mean_anomaly": 264.0735,
        "meta_ephemeris_type": 0,
        "meta_classification_type": "U",
        "meta_norad_cat_id": 60989,
        "meta_element_set_no": 999,
        "meta_rev_at_epoch": 6735,
        "meta_bstar": 5.5747215e-05,
        "meta_mean_motion_dot": 1.03e-06,
        "meta_mean_motion_ddot": 0,
        "tle_line1": "1 60989U 24157A   25353.94186876  .00000103  00000+0  55747-4 0  9993",
        "tle_line2": "2 60989  98.5676  66.3206 0001214  96.0586 264.0735 14.30820183 67358"
      },
      "geometry": {
        "type": "Point",
        "coordinates": [
          21.991214375224633,
          77.88666634812849
        ]
      }
    },
    {
      "type": "Feature",
      "properties": {
        "norad_id": 61735,
        "name": "IONOSFERA-M 1",
        "group": "resource",
        "lat": 49.667538507846956,
        "lon": 54.46655062790687,
        "alt_km": 811.8263296893592,
        "timestamp": "2025-12-20T05:41:49.676235+00:00",
        "meta_object_name": "IONOSFERA-M 1",
        "meta_object_id": "2024-199A",
        "meta_epoch": "2025-12-19T22:20:21.341184",
        "meta_mean_motion": 14.22715492,
        "meta_eccentricity": 6.143e-05,
        "meta_inclination": 98.7399,
        "meta_ra_of_asc_node": 223.7237,
        "meta_arg_of_pericenter": 12.8432,
        "meta_mean_anomaly": 347.2762,
        "meta_ephemeris_type": 0,
        "meta_classification_type": "U",
        "meta_norad_cat_id": 61735,
        "meta_element_set_no": 999,
        "meta_rev_at_epoch": 10221,
        "meta_bstar": 3.8821726e-05,
        "meta_mean_motion_dot": 4.3e-07,
        "meta_mean_motion_ddot": 0,
        "tle_line1": "1 61735U 24199A   25353.93080256  .00000043  00000+0  38822-4 0  9991",
        "tle_line2": "2 61735  98.7399 223.7237 0000614  12.8432 347.2762 14.22715492102210"
      },
      "geometry": {
        "type": "Point",
        "coordinates": [
          54.46655062790687,
          49.667538507846956
        ]
      }
    },
    {
      "type": "Feature",
      "properties": {
        "norad_id": 61736,
        "name": "IONOSFERA-M 2",
        "group": "resource",
        "lat": -47.18418086270104,
        "lon": -126.50285468699012,
        "alt_km": 824.0384777243216,
        "timestamp": "2025-12-20T05:41:49.676247+00:00",
        "meta_object_name": "IONOSFERA-M 2",
        "meta_object_id": "2024-199B",
        "meta_epoch": "2025-12-19T21:28:57.587808",
        "meta_mean_motion": 14.22717672,
        "meta_eccentricity": 0.00017952,
        "meta_inclination": 98.7398,
        "meta_ra_of_asc_node": 223.6006,
        "meta_arg_of_pericenter": 101.5104,
        "meta_mean_anomaly": 258.6275,
        "meta_ephemeris_type": 0,
        "meta_classification_type": "U",
        "meta_norad_cat_id": 61736,
        "meta_element_set_no": 999,
        "meta_rev_at_epoch": 10533,
        "meta_bstar": 3.6775989e-05,
        "meta_mean_motion_dot": 3.8e-07,
        "meta_mean_motion_ddot": 0,
        "tle_line1": "1 61736U 24199B   25353.89511097  .00000038  00000+0  36776-4 0  9999",
        "tle_line2": "2 61736  98.7398 223.6006 0001795 101.5104 258.6275 14.22717672105338"
      },
      "geometry": {
        "type": "Point",
        "coordinates": [
          -126.50285468699012,
          -47.18418086270104
        ]
      }
    },
    {
      "type": "Feature",
      "properties": {
        "norad_id": 63772,
        "name": "BIOMASS",
        "group": "resource",
        "lat": -81.65501033761723,
        "lon": -105.56788713151876,
        "alt_km": 677.023933718875,
        "timestamp": "2025-12-20T05:41:49.676258+00:00",
        "meta_object_name": "BIOMASS",
        "meta_object_id": "2025-090A",
        "meta_epoch": "2025-12-19T10:27:38.474208",
        "meta_mean_motion": 14.67534976,
        "meta_eccentricity": 0.000107,
        "meta_inclination": 98.07,
        "meta_ra_of_asc_node": 178.3481,
        "meta_arg_of_pericenter": 79.7157,
        "meta_mean_anomaly": 280.4168,
        "meta_ephemeris_type": 0,
        "meta_classification_type": "U",
        "meta_norad_cat_id": 63772,
        "meta_element_set_no": 999,
        "meta_rev_at_epoch": 3432,
        "meta_bstar": 0.00014315,
        "meta_mean_motion_dot": 7.64e-06,
        "meta_mean_motion_ddot": 0,
        "tle_line1": "1 63772U 25090A   25353.43586197  .00000764  00000+0  14315-3 0  9995",
        "tle_line2": "2 63772  98.0700 178.3481 0001070  79.7157 280.4168 14.67534976 34320"
      },
      "geometry": {
        "type": "Point",
        "coordinates": [
          -105.56788713151876,
          -81.65501033761723
        ]
      }
    }
  ]
}